{
  "type": "FeatureCollection",
  "features": [
    {
      "type": "Feature",
      "properties": {
        "norad_id": 41581,
        "name": "INTELSAT 31 (IS-31)",
        "group": "intelsat",
        "lat": -0.0120468187970688,
        "lon": 157.83967112451566,
        "alt_km": 35782.51754671498,
        "timestamp": "2025-12-10T11:33:53.059346+00:00",
        "meta_object_name": "INTELSAT 31 (IS-31)",
        "meta_object_id": "2016-035A",
        "meta_epoch": "2025-12-09T19:58:11.640288",
        "meta_mean_motion": 1.00271843,
        "meta_eccentricity": 0.000194,
        "meta_inclination": 0.0162,
        "meta_ra_of_asc_node": 272.8393,
        "meta_arg_of_pericenter": 308.881,
        "meta_mean_anomaly": 61.5794,
        "meta_ephemeris_type": 0,
        "meta_classification_type": "U",
        "meta_norad_cat_id": 41581,
        "meta_element_set_no": 999,
        "meta_rev_at_epoch": 3478,
        "meta_bstar": 0,
        "meta_mean_motion_dot": -1.48e-06,
        "meta_mean_motion_ddot": 0,
        "tle_line1": "1 41581U 16035A   25343.83207917 -.00000148  00000+0  00000+0 0  9990",
        "tle_line2": "2 41581   0.0162 272.8393 0001940 308.8810  61.5794  1.00271843 34786"
      },
      "geometry": {
        "type": "Point",
        "coordinates": [
          157.83967112451566,
          -0.0120468187970688
        ]
      }
    },
    {
      "type": "Feature",
      "properties": {
        "norad_id": 41747,
        "name": "INTELSAT 36 (IS-36)",
        "group": "intelsat",
        "lat": -0.016709063136619157,
        "lon": -38.5871937137497,
        "alt_km": 35780.56532044772,
        "timestamp": "2025-12-10T11:33:53.059358+00:00",
        "meta_object_name": "INTELSAT 36 (IS-36)",
        "meta_object_id": "2016-053A",
        "meta_epoch": "2025-12-09T22:23:38.607072",
        "meta_mean_motion": 1.00269772,
        "meta_eccentricity": 0.0001443,
        "meta_inclination": 0.0118,
        "meta_ra_of_asc_node": 5.7228,
        "meta_arg_of_pericenter": 313.4761,
        "meta_mean_anomaly": 164.1191,
        "meta_ephemeris_type": 0,
        "meta_classification_type": "U",
        "meta_norad_cat_id": 41747,
        "meta_element_set_no": 999,
        "meta_rev_at_epoch": 3405,
        "meta_bstar": 0,
        "meta_mean_motion_dot": -2.1e-07,
        "meta_mean_motion_ddot": 0,
        "tle_line1": "1 41747U 16053A   25343.93308573 -.00000021  00000+0  00000+0 0  9995",
        "tle_line2": "2 41747   0.0118   5.7228 0001443 313.4761 164.1191  1.00269772 34055"
      },
      "geometry": {
        "type": "Point",
        "coordinates": [
          -38.5871937137497,
          -0.016709063136619157
        ]
      }
    },
    {
      "type": "Feature",
      "properties": {
        "norad_id": 41945,
        "name": "INTELSAT 32E (IS-32E)",
        "group": "intelsat",
        "lat": 0.005072051730882473,
        "lon": -150.2602992363867,
        "alt_km": 35788.35659069772,
        "timestamp": "2025-12-10T11:33:53.059370+00:00",
        "meta_object_name": "INTELSAT 32E (IS-32E)",
        "meta_object_id": "2017-007B",
        "meta_epoch": "2025-12-09T20:12:55.228032",
        "meta_mean_motion": 1.00269426,
        "meta_eccentricity": 4.39e-05,
        "meta_inclination": 0.0294,
        "meta_ra_of_asc_node": 72.1437,
        "meta_arg_of_pericenter": 284.528,
        "meta_mean_anomaly": 342.2081,
        "meta_ephemeris_type": 0,
        "meta_classification_type": "U",
        "meta_norad_cat_id": 41945,
        "meta_element_set_no": 999,
        "meta_rev_at_epoch": 3232,
        "meta_bstar": 0,
        "meta_mean_motion_dot": -2.66e-06,
        "meta_mean_motion_ddot": 0,
        "tle_line1": "1 41945U 17007B   25343.84230588 -.00000266  00000+0  00000+0 0  9996",
        "tle_line2": "2 41945   0.0294  72.1437 0000439 284.5280 342.2081  1.00269426 32329"
      },
      "geometry": {
        "type": "Point",
        "coordinates": [
          -150.2602992363867,
          0.005072051730882473
        ]
      }
    },
    {
      "type": "Feature",
      "properties": {
        "norad_id": 42818,
        "name": "INTELSAT 35E (IS-35E)",
        "group": "intelsat",
        "lat": -0.032141688834977714,
        "lon": -141.60402271217689,
        "alt_km": 35780.27078826277,
        "timestamp": "2025-12-10T11:33:53.059381+00:00",
        "meta_object_name": "INTELSAT 35E (IS-35E)",
        "meta_object_id": "2017-041A",
        "meta_epoch": "2025-12-09T20:15:24.987744",
        "meta_mean_motion": 1.0026928,
        "meta_eccentricity": 0.0002289,
        "meta_inclination": 0.0182,
        "meta_ra_of_asc_node": 336.435,
        "meta_arg_of_pericenter": 289.2922,
        "meta_mean_anomaly": 82.4516,
        "meta_ephemeris_type": 0,
        "meta_classification_type": "U",
        "meta_norad_cat_id": 42818,
        "meta_element_set_no": 999,
        "meta_rev_at_epoch": 3091,
        "meta_bstar": 0,
        "meta_mean_motion_dot": -2.35e-06,
        "meta_mean_motion_ddot": 0,
        "tle_line1": "1 42818U 17041A   25343.84403921 -.00000235  00000+0  00000+0 0  9993",
        "tle_line2": "2 42818   0.0182 336.4350 0002289 289.2922  82.4516  1.00269280 30912"
      },
      "geometry": {
        "type": "Point",
        "coordinates": [
          -141.60402271217689,
          -0.032141688834977714
        ]
      }
    },
    {
      "type": "Feature",
      "properties": {
        "norad_id": 42950,
        "name": "INTELSAT 37E (IS-37E)",
        "group": "intelsat",
        "lat": -0.025283557290249923,
        "lon": -125.09161031612199,
        "alt_km": 35772.9870143707,
        "timestamp": "2025-12-10T11:33:53.059393+00:00",
        "meta_object_name": "INTELSAT 37E (IS-37E)",
        "meta_object_id": "2017-059A",
        "meta_epoch": "2025-12-09T20:20:09.534048",
        "meta_mean_motion": 1.0027075,
        "meta_eccentricity": 0.0003357,
        "meta_inclination": 0.0158,
        "meta_ra_of_asc_node": 16.1299,
        "meta_arg_of_pericenter": 238.0754,
        "meta_mean_anomaly": 111.6646,
        "meta_ephemeris_type": 0,
        "meta_classification_type": "U",
        "meta_norad_cat_id": 42950,
        "meta_element_set_no": 999,
        "meta_rev_at_epoch": 3016,
        "meta_bstar": 0,
        "meta_mean_motion_dot": -1.38e-06,
        "meta_mean_motion_ddot": 0,
        "tle_line1": "1 42950U 17059A   25343.84733257 -.00000138  00000+0  00000+0 0  9999",
        "tle_line2": "2 42950   0.0158  16.1299 0003357 238.0754 111.6646  1.00270750 30168"
      },
      "geometry": {
        "type": "Point",
        "coordinates": [
          -125.09161031612199,
          -0.025283557290249923
        ]
      }
    },
    {
      "type": "Feature",
      "properties": {
        "norad_id": 43632,
        "name": "AZERSPACE 2 (IS-38)",
        "group": "intelsat",
        "lat": -0.025617108688817794,
        "lon": -61.96045971179606,
        "alt_km": 35780.9513734612,
        "timestamp": "2025-12-10T11:33:53.059405+00:00",
        "meta_object_name": "AZERSPACE 2 (IS-38)",
        "meta_object_id": "2018-074A",
        "meta_epoch": "2025-12-10T00:22:38.594208",
        "meta_mean_motion": 1.00270865,
        "meta_eccentricity": 0.0001516,
        "meta_inclination": 0.0173,
        "meta_ra_of_asc_node": 343.9985,
        "meta_arg_of_pericenter": 280.3138,
        "meta_mean_anomaly": 225.4524,
        "meta_ephemeris_type": 0,
        "meta_classification_type": "U",
        "meta_norad_cat_id": 43632,
        "meta_element_set_no": 999,
        "meta_rev_at_epoch": 2655,
        "meta_bstar": 0,
        "meta_mean_motion_dot": 1.39e-06,
        "meta_mean_motion_ddot": 0,
        "tle_line1": "1 43632U 18074A   25344.01572447  .00000139  00000+0  00000+0 0  9997",
        "tle_line2": "2 43632   0.0173 343.9985 0001516 280.3138 225.4524  1.00270865 26551"
      },
      "geometry": {
        "type": "Point",
        "coordinates": [
          -61.96045971179606,
          -0.025617108688817794
        ]
      }
    },
    {
      "type": "Feature",
      "properties": {
        "norad_id": 43633,
        "name": "HORIZONS-3E",
        "group": "intelsat",
        "lat": -0.008396150328433247,
        "lon": 61.93987889819236,
        "alt_km": 35790.77320544497,
        "timestamp": "2025-12-10T11:33:53.059416+00:00",
        "meta_object_name": "HORIZONS-3E",
        "meta_object_id": "2018-074B",
        "meta_epoch": "2025-12-09T21:13:34.415904",
        "meta_mean_motion": 1.00269183,
        "meta_eccentricity": 0.0001197,
        "meta_inclination": 0.0426,
        "meta_ra_of_asc_node": 176.4029,
        "meta_arg_of_pericenter": 103.9007,
        "meta_mean_anomaly": 285.9698,
        "meta_ephemeris_type": 0,
        "meta_classification_type": "U",
        "meta_norad_cat_id": 43633,
        "meta_element_set_no": 999,
        "meta_rev_at_epoch": 2644,
        "meta_bstar": 0,
        "meta_mean_motion_dot": -2.8e-07,
        "meta_mean_motion_ddot": 0,
        "tle_line1": "1 43633U 18074B   25343.88442611 -.00000028  00000+0  00000+0 0  9999",
        "tle_line2": "2 43633   0.0426 176.4029 0001197 103.9007 285.9698  1.00269183 26443"
      },
      "geometry": {
        "type": "Point",
        "coordinates": [
          61.93987889819236,
          -0.008396150328433247
        ]
      }
    }
  ]
}